STARLINK-30069          
1 56834U 23079M   26067.48212902 -.00002416  00000+0 -80472-4 0  9995
2 56834  42.9986 110.4464 0000469 272.6695  87.4103 15.26726881152740
STARLINK-35582          
1 66537U 25265X   26068.56211802  .00029917  00000+0  10915-2 0  9999
2 66537  43.0013 278.6784 0003659 295.6523  64.3951 15.27598737 17096
